{"type": "FeatureCollection", "features": [ {"type": "Feature", "properties": {"norad_id": 39553, "name": "COSMOS 2251 DEB", "group": "cosmos-2251-debris", "lat": 29.49716091678666, "lon": 117.10983462303614, "alt_km": 839.6434924530968, "timestamp": "2025-12-26T08:37:54.977973+00:00", "meta": {"OBJECT_NAME": "COSMOS 2251 DEB", "OBJECT_ID": "1993-036BUK", "EPOCH": "2025-12-19T04:26:08.787552", "MEAN_MOTION": 13.99893274, "ECCENTRICITY": 0.02023146, "INCLINATION": 74.0301, "RA_OF_ASC_NODE": 318.8543, "ARG_OF_PERICENTER": 93.0274, "MEAN_ANOMALY": 269.4029, "EPHEMERIS_TYPE": 0, "CLASSIFICATION_TYPE": "U", "NORAD_CAT_ID": 39553, "ELEMENT_SET_NO": 999, "REV_AT_EPOCH": 75707, "BSTAR": 0.00037697212, "MEAN_MOTION_DOT": 6.38e-06, "MEAN_MOTION_DDOT": 0}, "tle": {"line1": "1 39553U 93036BUK 25353.18482393  .00000638  00000+0  37697-3 0  9993", "line2": "2 39553  74.0301 318.8543 0202314  93.0274 269.4029 13.99893274757074"}}, "geometry": {"type": "Point", "coordinates": [117.10983462303614, 29.49716091678666]}}, {"type": "Feature", "properties": {"norad_id": 39554, "name": "COSMOS 2251 DEB", "group": "cosmos-2251-debris", "lat": -61.527901991367415, "lon": 88.31459652465557, "alt_km": 536.7788222624822, "timestamp": "2025-12-26T08:37:54.977985+00:00", "meta": {"OBJECT_NAME": "COSMOS 2251 DEB", "OBJECT_ID": "1993-036BUL", "EPOCH": "2025-12-10T06:12:03.924864", "MEAN_MOTION": 15.10130993, "ECCENTRICITY": 0.0002993, "INCLINATION": 74.0187, "RA_OF_ASC_NODE": 269.7383, "ARG_OF_PERICENTER": 74.7531, "MEAN_ANOMALY": 81.5927, "EPHEMERIS_TYPE": 0, "CLASSIFICATION_TYPE": "U", "NORAD_CAT_ID": 39554, "ELEMENT_SET_NO": 999, "REV_AT_EPOCH": 64347, "BSTAR": 0.0046896, "MEAN_MOTION_DOT": 0.000773, "MEAN_MOTION_DDOT": 0}, "tle": {"line1": "1 39554U 93036BUL 25344.25837876  .00077300  00000+0  46896-2 0  9992", "line2": "2 39554  74.0187 269.7383 0002993  74.7531  81.5927 15.10130993643471"}}, "geometry": {"type": "Point", "coordinates": [88.31459652465557, -61.527901991367415]}}, {"type": "Feature", "properties": {"norad_id": 39583, "name": "COSMOS 2251 DEB", "group": "cosmos-2251-debris", "lat": -50.45757256496363, "lon": -159.39293839089103, "alt_km": 609.5388957744353, "timestamp": "2025-12-26T08:37:54.977995+00:00", "meta": {"OBJECT_NAME": "COSMOS 2251 DEB", "OBJECT_ID": "1993-036BUN", "EPOCH": "2025-12-24T09:12:01.945440", "MEAN_MOTION": 14.60635588, "ECCENTRICITY": 0.01369797, "INCLINATION": 73.9311, "RA_OF_ASC_NODE": 224.8404, "ARG_OF_PERICENTER": 335.8722, "MEAN_ANOMALY": 23.6064, "EPHEMERIS_TYPE": 0, "CLASSIFICATION_TYPE": "U", "NORAD_CAT_ID": 39583, "ELEMENT_SET_NO": 999, "REV_AT_EPOCH": 61949, "BSTAR": 0.0015752368, "MEAN_MOTION_DOT": 8.73e-05, "MEAN_MOTION_DDOT": 0}, "tle": {"line1": "1 39583U 93036BUN 25358.38335585  .00008730  00000+0  15752-2 0  9991", "line2": "2 39583  73.9311 224.8404 0136979 335.8722  23.6064 14.60635588619499"}}, "geometry": {"type": "Point", "coordinates": [-159.39293839089103, -50.45757256496363]}}, {"type": "Feature", "properties": {"norad_id": 39585, "name": "COSMOS 2251 DEB", "group": "cosmos-2251-debris", "lat": 38.771330956901885, "lon": -71.32344829383442, "alt_km": 647.9457143747104, "timestamp": "2025-12-26T08:37:54.978006+00:00", "meta": {"OBJECT_NAME": "COSMOS 2251 DEB", "OBJECT_ID": "1993-036BUQ", "EPOCH": "2025-12-25T02:49:16.282848", "MEAN_MOTION": 14.58700327, "ECCENTRICITY": 0.00658821, "INCLINATION": 74.0412, "RA_OF_ASC_NODE": 277.7526, "ARG_OF_PERICENTER": 35.2218, "MEAN_ANOMALY": 325.3273, "EPHEMERIS_TYPE": 0, "CLASSIFICATION_TYPE": "U", "NORAD_CAT_ID": 39585, "ELEMENT_SET_NO": 999, "REV_AT_EPOCH": 62701, "BSTAR": 0.00028775805, "MEAN_MOTION_DOT": 1.352e-05, "MEAN_MOTION_DDOT": 0}, "tle": {"line1": "1 39585U 93036BUQ 25359.11754957  .00001352  00000+0  28776-3 0  9997", "line2": "2 39585  74.0412 277.7526 0065882  35.2218 325.3273 14.58700327627014"}}, "geometry": {"type": "Point", "coordinates": [-71.32344829383442, 38.771330956901885]}}, {"type": "Feature", "properties": {"norad_id": 39586, "name": "COSMOS 2251 DEB", "group": "cosmos-2251-debris", "lat": 17.89813681353301, "lon": 18.487176524858334, "alt_km": 893.3456188605678, "timestamp": "2025-12-26T08:37:54.978016+00:00", "meta": {"OBJECT_NAME": "COSMOS 2251 DEB", "OBJECT_ID": "1993-036BUR", "EPOCH": "2025-12-15T23:50:08.053728", "MEAN_MOTION": 14.21232237, "ECCENTRICITY": 0.01008868, "INCLINATION": 74.0082, "RA_OF_ASC_NODE": 222.4068, "ARG_OF_PERICENTER": 356.2296, "MEAN_ANOMALY": 66.1426, "EPHEMERIS_TYPE": 0, "CLASSIFICATION_TYPE": "U", "NORAD_CAT_ID": 39586, "ELEMENT_SET_NO": 999, "REV_AT_EPOCH": 61018, "BSTAR": 0.00043436803, "MEAN_MOTION_DOT": 9.7e-06, "MEAN_MOTION_DDOT": 0}, "tle": {"line1": "1 39586U 93036BUR 25349.99314877  .00000970  00000+0  43437-3 0  9992", "line2": "2 39586  74.0082 222.4068 0100886 356.2296  66.1426 14.21232237610182"}}, "geometry": {"type": "Point", "coordinates": [18.487176524858334, 17.89813681353301]}}, {"type": "Feature", "properties": {"norad_id": 39591, "name": "COSMOS 2251 DEB", "group": "cosmos-2251-debris", "lat": -20.8190451761031, "lon": -144.75557590287394, "alt_km": 736.3978261928978, "timestamp": "2025-12-26T08:37:54.978036+00:00", "meta": {"OBJECT_NAME": "COSMOS 2251 DEB", "OBJECT_ID": "1993-036BUW", "EPOCH": "2025-12-23T22:31:12.958752", "MEAN_MOTION": 14.41832827, "ECCENTRICITY": 0.0029541, "INCLINATION": 74.019, "RA_OF_ASC_NODE": 225.9904, "ARG_OF_PERICENTER": 336.8177, "MEAN_ANOMALY": 38.5171, "EPHEMERIS_TYPE": 0, "CLASSIFICATION_TYPE": "U", "NORAD_CAT_ID": 39591, "ELEMENT_SET_NO": 999, "REV_AT_EPOCH": 61938, "BSTAR": 0.00024268, "MEAN_MOTION_DOT": 7.71e-06, "MEAN_MOTION_DDOT": 0}, "tle": {"line1": "1 39591U 93036BUW 25357.93834443  .00000771  00000+0  24268-3 0  9997", "line2": "2 39591  74.0190 225.9904 0029541 336.8177  38.5171 14.41832827619389"}}, "geometry": {"type": "Point", "coordinates": [-144.75557590287394, -20.8190451761031]}}, {"type": "Feature", "properties": {"norad_id": 40218, "name": "COSMOS 2251 DEB", "group": "cosmos-2251-debris", "lat": -40.06511910268174, "lon": 57.53042549971052, "alt_km": 757.5051142596349, "timestamp": "2025-12-26T08:37:54.978062+00:00", "meta": {"OBJECT_NAME": "COSMOS 2251 DEB", "OBJECT_ID": "1993-036BUX", "EPOCH": "2025-12-14T10:48:31.251744", "MEAN_MOTION": 14.41597705, "ECCENTRICITY": 0.00168728, "INCLINATION": 74.0298, "RA_OF_ASC_NODE": 245.6562, "ARG_OF_PERICENTER": 328.6, "MEAN_ANOMALY": 31.4147, "EPHEMERIS_TYPE": 0, "CLASSIFICATION_TYPE": "U", "NORAD_CAT_ID": 40218, "ELEMENT_SET_NO": 999, "REV_AT_EPOCH": 58886, "BSTAR": 0.00046023204, "MEAN_MOTION_DOT": 1.474e-05, "MEAN_MOTION_DDOT": 0}, "tle": {"line1": "1 40218U 93036BUX 25348.45036171  .00001474  00000+0  46023-3 0  9998", "line2": "2 40218  74.0298 245.6562 0016872 328.6000  31.4147 14.41597705588868"}}, "geometry": {"type": "Point", "coordinates": [57.53042549971052, -40.06511910268174]}}, {"type": "Feature", "properties": {"norad_id": 40223, "name": "COSMOS 2251 DEB", "group": "cosmos-2251-debris", "lat": 21.687105447007056, "lon": 67.2513666692115, "alt_km": 555.8935126427232, "timestamp": "2025-12-26T08:37:54.978084+00:00", "meta": {"OBJECT_NAME": "COSMOS 2251 DEB", "OBJECT_ID": "1993-036BVC", "EPOCH": "2025-12-21T12:06:26.690112", "MEAN_MOTION": 15.04482505, "ECCENTRICITY": 0.00157052, "INCLINATION": 73.9371, "RA_OF_ASC_NODE": 70.6668, "ARG_OF_PERICENTER": 278.3258, "MEAN_ANOMALY": 95.1407, "EPHEMERIS_TYPE": 0, "CLASSIFICATION_TYPE": "U", "NORAD_CAT_ID": 40223, "ELEMENT_SET_NO": 999, "REV_AT_EPOCH": 59506, "BSTAR": 0.0032560994, "MEAN_MOTION_DOT": 0.00045964, "MEAN_MOTION_DDOT": 0}, "tle": {"line1": "1 40223U 93036BVC 25355.50447558  .00045964  00000+0  32561-2 0  9996", "line2": "2 40223  73.9371  70.6668 0015705 278.3258  95.1407 15.04482505595064"}}, "geometry": {"type": "Point", "coordinates": [67.2513666692115, 21.687105447007056]}}, {"type": "Feature", "properties": {"norad_id": 40228, "name": "COSMOS 2251 DEB", "group": "cosmos-2251-debris", "lat": 72.48317612317457, "lon": -59.70826781717113, "alt_km": 762.4656471405206, "timestamp": "2025-12-26T08:37:54.978096+00:00", "meta": {"OBJECT_NAME": "COSMOS 2251 DEB", "OBJECT_ID": "1993-036BVH", "EPOCH": "2025-12-24T10:27:05.872032", "MEAN_MOTION": 14.41015471, "ECCENTRICITY": 0.00242372, "INCLINATION": 74.054, "RA_OF_ASC_NODE": 238.9073, "ARG_OF_PERICENTER": 298.7389, "MEAN_ANOMALY": 245.8492, "EPHEMERIS_TYPE": 0, "CLASSIFICATION_TYPE": "U", "NORAD_CAT_ID": 40228, "ELEMENT_SET_NO": 999, "REV_AT_EPOCH": 59089, "BSTAR": 0.00026003762, "MEAN_MOTION_DOT": 8.12e-06, "MEAN_MOTION_DDOT": 0}, "tle": {"line1": "1 40228U 93036BVH 25358.43548463  .00000812  00000+0  26004-3 0  9992", "line2": "2 40228  74.0540 238.9073 0024237 298.7389 245.8492 14.41015471590897"}}, "geometry": {"type": "Point", "coordinates": [-59.70826781717113, 72.48317612317457]}}, {"type": "Feature", "properties": {"norad_id": 40230, "name": "COSMOS 2251 DEB", "group": "cosmos-2251-debris", "lat": -61.414671267438244, "lon": 169.6825304344452, "alt_km": 723.7074062239944, "timestamp": "2025-12-26T08:37:54.978106+00:00", "meta": {"OBJECT_NAME": "COSMOS 2251 DEB", "OBJECT_ID": "1993-036BVK", "EPOCH": "2025-12-20T07:41:52.070784", "MEAN_MOTION": 14.49354869, "ECCENTRICITY": 0.00189754, "INCLINATION": 74.0435, "RA_OF_ASC_NODE": 212.675, "ARG_OF_PERICENTER": 270.0639, "MEAN_ANOMALY": 207.3635, "EPHEMERIS_TYPE": 0, "CLASSIFICATION_TYPE": "U", "NORAD_CAT_ID": 40230, "ELEMENT_SET_NO": 999, "REV_AT_EPOCH": 59081, "BSTAR": 0.00041501757, "MEAN_MOTION_DOT": 1.562e-05, "MEAN_MOTION_DDOT": 0}, "tle": {"line1": "1 40230U 93036BVK 25354.32074156  .00001562  00000+0  41502-3 0  9995", "line2": "2 40230  74.0435 212.6750 0018975 270.0639 207.3635 14.49354869590816"}}, "geometry": {"type": "Point", "coordinates": [169.6825304344452, -61.414671267438244]}}]}